BEIDOU 3 (C01)          
1 36287U 10001A   21215.05388235 -.00000278  00000-0  00000+0 0  9990
2 36287   1.9453  48.1714 0005884  85.0748 338.4600  1.00272145 42329
BEIDOU 5 (C06)          
1 36828U 10036A   21214.89302916 -.00000083  00000-0  00000+0 0  9996
2 36828  54.1837 179.1599 0114866 235.6197 333.2416  1.00245763 40371
BEIDOU 6 (C04)          
1 37210U 10057A   21215.17409390 -.00000108  00000-0  00000+0 0  9999
2 37210   0.9172  52.5143 0005704 125.1962 356.9782  1.00272602 39446
BEIDOU 7 (C07)          
1 37256U 10068A   21214.86370777 -.00000206  00000-0  00000-0 0  9992
2 37256  50.7701 293.4462 0091486 217.6333 228.1966  1.00298078 38952
BEIDOU 8 (C08)          
1 37384U 11013A   21215.20932780 -.00000179  00000-0  00000+0 0  9990
2 37384  59.8393  57.4278 0054058 207.0116 240.6237  1.00293035 37834
BEIDOU 9 (C09)          
1 37763U 11038A   21214.95986110 -.00000027  00000-0  00000-0 0  9998
2 37763  54.4694 181.6104 0084379 227.0298 341.6591  1.00255897 36805
BEIDOU 10 (C10)         
1 37948U 11073A   21214.93544034 -.00000148  00000-0  00000-0 0  9999
2 37948  50.8829 293.0701 0077356 215.5017 235.7882  1.00282978 35567
BEIDOU 11 (C05)         
1 38091U 12008A   21214.95466304  .00000059  00000-0  00000+0 0  9992
2 38091   1.6499  68.9775 0007126 340.2758 304.9062  1.00274923 34637
BEIDOU 12 (C11)         
1 38250U 12018A   21214.72148221 -.00000095  00000-0  00000-0 0  9992
2 38250  56.7514   4.0845 0020822 244.1731 110.6117  1.86234274 63143
BEIDOU 13 (C12)         
1 38251U 12018B   21215.25343719 -.00000095  00000-0  00000+0 0  9990
2 38251  56.6760   3.4140 0011681 243.9390 151.8768  1.86234113 63161
BEIDOU 15 (C14)         
1 38775U 12050B   21214.82815272 -.00000052  00000-0  00000-0 0  9991
2 38775  55.2286 122.4205 0014819 323.3481 344.7486  1.86232281 60525
BEIDOU 16 (C02)         
1 38953U 12059A   21215.11021530 -.00000173  00000-0  00000+0 0  9990
2 38953   1.2081  83.9030 0010944 298.1358  53.5408  1.00275864 32204
BEIDOU 17 (C31)         
1 40549U 15019A   21214.48016238 -.00000176  00000-0  00000-0 0  9995
2 40549  52.4208 316.4597 0039815 188.5817  72.5672  1.00256042 23233
BEIDOU 18 (C57)         
1 40748U 15037A   21214.72690234 -.00000098  00000-0  00000-0 0  9990
2 40748  55.9350   2.4899 0003649  50.0717 262.5537  1.86233364 40972
BEIDOU 19 (C58)         
1 40749U 15037B   21214.64263396 -.00000098  00000-0  00000-0 0  9997
2 40749  55.9391   2.4823 0002506 340.9987  51.0331  1.86232083 40976
BEIDOU 20 (C18)         
1 40938U 15053A   21214.34829977 -.00000118  00000-0  00000-0 0  9998
2 40938  51.9913 279.5377 0048520 193.9156  59.6556  1.00273355 21507
BEIDOU IGSO-6 (C13)     
1 41434U 16021A   21215.52012419 -.00000134  00000-0  00000+0 0  9999
2 41434  57.6238  56.1475 0038432 211.1333 326.8597  1.00260047 19641
BEIDOU-2 G7 (C03)       
1 41586U 16037A   21215.19553500 -.00000352  00000-0  00000+0 0  9990
2 41586   1.7964  68.1613 0008285  19.3938  45.3310  1.00270369 18940
BEIDOU-3 M1 (C19)       
1 43001U 17069A   21214.55859969 -.00000052  00000-0  00000-0 0  9995
2 43001  55.3831 122.3873 0010436 294.9589 348.3747  1.86231853 25450
BEIDOU-3 M2 (C20)       
1 43002U 17069B   21214.48186800 -.00000052  00000-0  00000-0 0  9995
2 43002  55.3831 122.4266 0009360 316.2528 319.0443  1.86231391 25447
BEIDOU-3 M3 (C27)       
1 43107U 18003A   21214.98349816 -.00000098  00000-0  00000-0 0  9993
2 43107  55.3791   3.5404 0005268  61.0925 356.4184  1.86232464 24224
BEIDOU-3 M4 (C28)       
1 43108U 18003B   21214.76465578 -.00000098  00000-0  00000-0 0  9994
2 43108  55.3731   3.5365 0002397 223.6950  92.2694  1.86232471 24217
BEIDOU-3 M5 (C21)       
1 43207U 18018A   21214.20362895 -.00000052  00000-0  00000-0 0  9997
2 43207  55.3421 122.5245 0007009 337.2540  22.7359  1.86231730 23597
BEIDOU-3 M6 (C22)       
1 43208U 18018B   21214.27032644 -.00000052  00000-0  00000-0 0  9991
2 43208  55.3414 122.5268 0008651 306.8194  53.1208  1.86231610 23594
BEIDOU-3 M7 (C29)       
1 43245U 18029A   21214.57534825 -.00000100  00000-0  00000+0 0  9998
2 43245  55.3079   1.3433 0001149 103.1675 310.9215  1.86232627 22755
BEIDOU-3 M8 (C30)       
1 43246U 18029B   21214.51142149 -.00000100  00000-0  10000-3 0  9992
2 43246  55.3055   1.3767 0003494   9.1095  48.3399  1.86232871 22741
BEIDOU IGSO-7 (C16)     
1 43539U 18057A   21215.30835175 -.00000095  00000-0  00000+0 0  9992
2 43539  55.0642 178.5335 0039030 223.7656 132.3220  1.00254476 11314
BEIDOU-3 M9 (C23)       
1 43581U 18062A   21215.16292970  .00000081  00000-0  00000+0 0  9993
2 43581  54.3849 242.9932 0005954 264.3424  80.1079  1.86231817 20492
BEIDOU-3 M10 (C24)      
1 43582U 18062B   21214.67931690  .00000077  00000-0  00000-0 0  9994
2 43582  54.3836 243.0009 0004649 326.6578 144.9288  1.86232121 20498
BEIDOU-3 M11 (C25)      
1 43602U 18067A   21214.98646947  .00000082  00000-0  00000+0 0  9999
2 43602  54.4611 241.5761 0006456 350.3076   9.3627  1.86231656 19981
BEIDOU-3 M12 (C26)      
1 43603U 18067B   21214.71473337  .00000079  00000-0  00000-0 0  9999
2 43603  54.4580 241.5529 0004031 331.0658 116.8686  1.86231571 20008
BEIDOU-3 M13 (C32)      
1 43622U 18072A   21215.32735417 -.00000051  00000-0  00000+0 0  9994
2 43622  55.3072 122.0532 0006887 293.7498 234.9674  1.86231906 19525
BEIDOU-3 M14 (C33)      
1 43623U 18072B   21214.82845366 -.00000052  00000-0  00000-0 0  9996
2 43623  55.3092 122.0614 0005660 318.4725 325.9919  1.86231935 19519
BEIDOU-3 M15 (C34)      
1 43647U 18078A   21214.64524928 -.00000100  00000-0  10000-3 0  9994
2 43647  55.2020   1.5266 0005727   7.2514  49.6066  1.86232942 19020
BEIDOU-3 M16 (C35)      
1 43648U 18078B   21214.71890003 -.00000100  00000-0  00000-0 0  9999
2 43648  55.1976   1.5310 0004159  26.2748 348.3410  1.86232282 19049
BEIDOU-3 G1 (C59)       
1 43683U 18085A   21215.17008105 -.00000276  00000-0  00000+0 0  9994
2 43683   0.9905 221.3101 0003659   4.5310 287.2904  1.00267694 10216
BEIDOU-3 M17 (C36)      
1 43706U 18093A   21214.31359177  .00000074  00000-0  00000-0 0  9998
2 43706  54.4654 242.8848 0011669 267.4243  92.5069  1.86232098 18398
BEIDOU-3 M18 (C37)      
1 43707U 18093B   21215.15826767  .00000081  00000-0  00000+0 0  9993
2 43707  54.4652 242.8474 0009597 287.2662   9.8762  1.86232113 18393
BEIDOU-3 IGSO-1 (C38)   
1 44204U 19023A   21214.93877946 -.00000202  00000-0  00000-0 0  9997
2 44204  56.0835  56.4077 0019396 187.9982 159.1988  1.00281530  8519
BEIDOU-2 G8             
1 44231U 19027A   21215.61419948 -.00000244  00000-0  00000+0 0  9996
2 44231   0.2575  14.6705 0006726 180.4294 122.8204  1.00273126  8231
BEIDOU-3 IGSO-2 (C39)   
1 44337U 19035A   21215.30782832 -.00000095  00000-0  00000+0 0  9997
2 44337  55.0964 174.5721 0020264 193.0950 162.7140  1.00268053  7856
BEIDOU-3 M23 (C45)      
1 44542U 19061A   21214.68277090  .00000078  00000-0  10000-3 0  9994
2 44542  54.6900 242.9512 0008637 315.3734 335.8428  1.86231476 12644
BEIDOU-3 M24 (C46)      
1 44543U 19061B   21214.38437175  .00000075  00000-0  10000-3 0  9991
2 44543  54.6880 242.9322 0006455 298.5953  63.4751  1.86231849 12649
BEIDOU-3 IGSO-3         
1 44709U 19073A   21215.35750345 -.00000170  00000-0  00000+0 0  9995
2 44709  57.7678 299.6773 0021241 201.6716  45.5890  1.00263705  6610
BEIDOU-3 M21            
1 44793U 19078A   21215.15535384 -.00000099  00000-0  10000-3 0  9990
2 44793  55.0504   1.5694 0005944  16.1338 337.1028  1.86232359 11518
BEIDOU-3 M22            
1 44794U 19078B   21215.30270709 -.00000099  00000-0  00000+0 0  9990
2 44794  55.0243   1.5629 0003780  19.3589 343.7428  1.86232783 11525
BEIDOU-3 M19            
1 44864U 19090A   21214.91639522 -.00000052  00000-0  00000-0 0  9990
2 44864  55.2424 122.2948 0016366 270.2964  28.4003  1.86231990 11097
BEIDOU-3 M20            
1 44865U 19090B   21214.75959112 -.00000052  00000-0  00000-0 0  9993
2 44865  55.2446 122.3306 0015221 285.2176 358.2619  1.86231924 11062
BEIDOU-3 G2             
1 45344U 20017A   21215.51707094 -.00000133  00000-0  00000+0 0  9991
2 45344   2.3697 338.1450 0004371 143.6306  96.7090  1.00271410  5430
BEIDOU-3 G3             
1 45807U 20040A   21214.34514130 -.00000348  00000-0  00000-0 0  9997
2 45807   2.1772 298.7462 0006667 341.4937 265.6675  1.00275903  4232
